line1,line2,validFromUtcTime
1 00000U 00000E   26001.00000000  .00000000  00000-0  27772-4 0    01,2 00000  88.8960 135.3350 0010172 269.8713 352.5271 13.55278527    08,2026-01-01T00:00:00Z
1 00000U 00000E   26002.00000000  .00000000  00000-0  27772-4 0    02,2 00000  88.8960 135.2227 0010172 266.9613 191.5283 13.55278566    04,2026-01-02T00:00:00Z
